STARLINK-31693          
1 59441C 24065W   26087.45604167 -.00032586  00000+0 -10980-2 0   879
2 59441  53.1579 194.5299 0001073 100.0507 209.8313 15.30216639    11
STARLINK-31622          
1 59456C 24068B   26087.41784722  .00042486  00000+0  15388-2 0   875
2 59456  43.0030 288.9666 0001488 268.3852 122.1810 15.27557937    18
STARLINK-31319          
1 59457C 24068C   26087.45326389 -.00000956  00000+0 -34664-4 0   879
2 59457  43.0010 284.9900 0001492 261.9503  95.4890 15.27546614    11
STARLINK-31625          
1 59458C 24068D   26087.41020833  .00040884  00000+0  14803-2 0   874
2 59458  43.0020 288.8703 0001590 259.9723 145.1424 15.27568038    17
STARLINK-31631          
1 59459C 24068E   26087.47826389  .00042722  00000+0  15470-2 0   875
2 59459  42.9997 284.6635 0001539 256.4942 316.3116 15.27564917    17
STARLINK-31620          
1 59460C 24068F   26087.44701389  .00048226  00000+0  17461-2 0   873
2 59460  43.0026 285.1269 0001425 261.8070  18.6551 15.27566062    17
STARLINK-31511          
1 59462C 24068H   26087.47687500  .00052743  00000+0  19094-2 0   879
2 59462  43.0029 288.5810 0001505 259.4516 117.3377 15.27567717    19
STARLINK-31364          
1 59463C 24068J   26087.36993056  .00026363  00000+0  95475-3 0   871
2 59463  43.0004 285.3752 0001521 261.1595  32.7349 15.27569775    13
STARLINK-31597          
1 59464C 24068K   26087.39840278  .00036914  00000+0  13365-2 0   872
2 59464  43.0013 288.8841 0001782 263.1034  98.2370 15.27571692    12
STARLINK-31621          
1 59465C 24068L   26087.43798611  .00039095  00000+0  14158-2 0   875
2 59465  43.0024 288.7598 0001452 266.0174 277.8708 15.27564556    15
STARLINK-31462          
1 59466C 24068M   26087.36854167  .00017331  00000+0  62687-3 0   877
2 59466  43.0005 288.9368 0001423 266.9292 332.3799 15.27614419    11
STARLINK-31592          
1 59467C 24068N   26087.36368056  .00016405  00000+0  59385-3 0   877
2 59467  43.0026 289.3243 0001564 267.3628 163.7765 15.27589413    10
STARLINK-31267          
1 59468C 24068P   26087.38381944  .00030002  00000+0  10866-2 0   870
2 59468  43.0022 284.7290 0001962 269.9586 333.8648 15.27563731    16
STARLINK-31381          
1 59469C 24068Q   26087.44562500  .00043348  00000+0  15699-2 0   873
2 59469  43.0027 285.2362 0001582 268.6192 321.7364 15.27560042    18
STARLINK-31546          
1 59470C 24068R   26087.45534722  .00049987  00000+0  18100-2 0   876
2 59470  43.0004 284.9247 0001517 260.0096 130.0150 15.27563949    13
STARLINK-31575          
1 59471C 24068S   26087.44145833  .00046941  00000+0  16997-2 0   876
2 59471  43.0018 285.1047 0001809 261.6217   9.4935 15.27564177    10
STARLINK-31610          
1 59473C 24068U   26087.46784722  .00043095  00000+0  15610-2 0   874
2 59473  43.0000 288.2873 0001485 267.4161 201.1749 15.27555896    18
STARLINK-31581          
1 59474C 24068V   26087.46506944  .00046365  00000+0  16788-2 0   873
2 59474  43.0018 281.3670 0001438 259.4426 195.6147 15.27566293    12
STARLINK-31566          
1 59475C 24068W   26087.39909722  .00035421  00000+0  12819-2 0   879
2 59475  43.0004 288.7243 0001562 268.3309 160.4889 15.27586718    19
STARLINK-31515          
1 59476C 24068X   26087.37756944  .00022494  00000+0  81447-3 0   874
2 59476  43.0008 288.9482 0001545 260.6333   7.2326 15.27577693    10
STARLINK-31531          
1 59477C 24068Y   26087.41576389  .00044903  00000+0  16254-2 0   875
2 59477  42.9988 233.6072 0001280 266.3074  54.9350 15.27576480    18
STARLINK-31753          
1 59484C 24071A   26087.45187500  .00026900  00000+0  97346-3 0   873
2 59484  43.0020 233.8628 0001532 260.8990 117.5803 15.27593573    11
STARLINK-31733          
1 59486C 24071C   26087.40326389  .00048129  00000+0  17421-2 0   872
2 59486  42.9986 233.7470 0001319 260.7423  12.8214 15.27576496    17
STARLINK-31657          
1 59487C 24071D   26087.48381944  .00014003  00000+0  50674-3 0   871
2 59487  42.9991 233.5127 0001314 260.8575   4.2556 15.27600381    10
STARLINK-31754          
1 59488C 24071E   26087.44423611  .00036465  00000+0  13198-2 0   871
2 59488  43.0013 241.3958 0001709 263.4483 197.7658 15.27584593    19
STARLINK-31638          
1 59489C 24071F   26087.44284722  .00030232  00000+0  10941-2 0   879
2 59489  42.9991 233.7226 0001405 259.0379 147.5615 15.27589772    14
STARLINK-31670          
1 59490C 24071G   26087.43173611  .00042167  00000+0  15271-2 0   875
2 59490  42.9983 245.3108 0001459 271.9849 327.4060 15.27562380    18
STARLINK-31712          
1 59491C 24071H   26087.41784722  .00043198  00000+0  15636-2 0   875
2 59491  42.9986 245.3851 0001234 269.6110 246.2631 15.27578855    19
STARLINK-31684          
1 59492C 24071J   26087.42618056  .00049072  00000+0  17768-2 0   878
2 59492  43.0006 241.5464 0001533 266.9438  73.6198 15.27564427    18
STARLINK-31678          
1 59493C 24071K   26087.42756944  .00046180  00000+0  16716-2 0   877
2 59493  42.9996 241.6372 0001694 262.6965  43.0876 15.27575136    13
STARLINK-31744          
1 59494C 24071L   26087.42826389  .00048197  00000+0  17447-2 0   871
2 59494  43.0002 241.5845 0001488 260.2199  70.6157 15.27573007    15
STARLINK-31719          
1 59495C 24071M   26087.41159722  .00042956  00000+0  15553-2 0   874
2 59495  43.0020 234.2655 0001411 276.0165 169.9379 15.27568516    15
STARLINK-31728          
1 59496C 24071N   26087.39631944  .00044139  00000+0  15980-2 0   872
2 59496  43.0002 234.0690 0001446 255.0833 219.9913 15.27571628    18
STARLINK-31720          
1 59497C 24071P   26087.43798611  .00032222  00000+0  11661-2 0   875
2 59497  43.0004 234.3338 0001458 259.5348 239.7590 15.27588331    16
STARLINK-31731          
1 59498C 24071Q   26087.37479167  .00051002  00000+0  18468-2 0   870
2 59498  42.9987 233.8886 0001677 272.0366 211.8307 15.27561459    19
STARLINK-31742          
1 59499C 24071R   26087.44354167  .00028617  00000+0  10360-2 0   870
2 59499  42.9991 233.6168 0001429 260.5934 192.2879 15.27581934    10
STARLINK-31512          
1 59500C 24071S   26087.48173611 -.00110540  00000+0 -40013-2 0   877
2 59500  43.0023 193.4699 0001321 267.8526 148.9695 15.27653386    16
STARLINK-31458          
1 59501C 24071T   26087.41645833  .00042488  00000+0  15377-2 0   879
2 59501  42.9992 233.8374 0001366 257.1770  18.2745 15.27582832    13
STARLINK-31357          
1 59502C 24071U   26087.43659722  .00031343  00000+0  11333-2 0   870
2 59502  43.0018 234.2221 0002184 279.8809 261.2302 15.27616763    14
STARLINK-31508          
1 59503C 24071V   26087.36090278  .00054677  00000+0  19793-2 0   871
2 59503  43.0011 234.6981 0001760 263.5626 199.6374 15.27568998    10
STARLINK-31535          
1 59504C 24071W   26087.36715278  .00059187  00000+0  21425-2 0   872
2 59504  42.9988 242.0255 0001745 265.1537  46.7657 15.27567346    13
STARLINK-31533          
1 59505C 24071X   26087.43937500  .00031463  00000+0  11392-2 0   874
2 59505  43.0001 234.3554 0001387 255.2872 237.4795 15.27575643    13
STARLINK-31524          
1 59506C 24071Y   26087.39006944 -.00123150  00000+0 -44533-2 0   879
2 59506  43.0008 227.1937 0001727 261.4686  96.1970 15.27693503    17
STARLINK-31635          
1 59511C 24073A   26087.36923611  .00043287  00000+0  15667-2 0   879
2 59511  43.0010 212.1562 0001465 257.0372 216.5304 15.27581903    15
STARLINK-31650          
1 59512C 24073B   26087.48520833 -.00080044  00000+0 -28970-2 0   877
2 59512  43.0015 211.9709 0001286 261.0892 292.8920 15.27643549    10
STARLINK-31658          
1 59513C 24073C   26087.42131944 -.00060930  00000+0 -22069-2 0   878
2 59513  43.0024 171.9568 0001489 270.4402 137.6269 15.27608971    17
STARLINK-31669          
1 59515C 24073E   26087.42756944  .00001000  00000+0  36179-4 0   873
2 59515  42.9989 211.9581 0001490 259.3123 118.8217 15.27602124    13
STARLINK-31671          
1 59516C 24073F   26087.36645833  .00041610  00000+0  15063-2 0   879
2 59516  43.0027 212.7736 0001391 275.8245 287.7421 15.27575585    11
STARLINK-31674          
1 59517C 24073G   26087.44770833 -.00048286  00000+0 -17473-2 0   873
2 59517  42.9995 211.9947 0001481 269.7552 155.5796 15.27631899    10
STARLINK-31679          
1 59519C 24073J   26087.45743056 -.00067388  00000+0 -24392-2 0   875
2 59519  43.0025 201.4551 0001057 257.5360 262.8492 15.27633804    17
STARLINK-31370          
1 59520C 24073K   26087.36854167  .00042446  00000+0  15363-2 0   877
2 59520  43.0020 212.7321 0001302 263.3691 325.8389 15.27579595    10
STARLINK-31404          
1 59521C 24073L   26087.46854167  .00002953  00000+0  10700-3 0   879
2 59521  43.0028 212.3013 0001482 268.7895  94.2962 15.27567902    10
STARLINK-31453          
1 59522C 24073M   26087.47340278 -.00073962  00000+0 -26777-2 0   874
2 59522  43.0017 194.1627 0001406 278.3902 324.8695 15.27629396    10
STARLINK-31476          
1 59523C 24073N   26087.46506944 -.00051050  00000+0 -18465-2 0   877
2 59523  43.0023 212.1339 0000890 273.2194 148.5729 15.27649487    14
STARLINK-31538          
1 59525C 24073Q   26087.40951389  .00027172  00000+0  98336-3 0   872
2 59525  42.9992 212.1076 0001433 261.1404 356.3763 15.27591692    12
STARLINK-31564          
1 59526C 24073R   26087.43104167  .00018790  00000+0  68018-3 0   870
2 59526  42.9990 211.8861 0001297 273.2536 145.2044 15.27587683    19
STARLINK-31452          
1 59527C 24073S   26087.44770833 -.00017712  00000+0 -64090-3 0   872
2 59527  43.0027 212.3679 0001498 264.7129   4.9956 15.27619855    12
STARLINK-31513          
1 59529C 24073U   26087.37479167  .00039963  00000+0  14485-2 0   874
2 59529  43.0025 209.2547 0002067 260.1258 339.6334 15.27533906    17
STARLINK-31392          
1 59530C 24073V   26087.40673611  .00019797  00000+0  71659-3 0   870
2 59530  43.0007 212.3561 0001212 274.4578 228.6956 15.27590123    15
